[
    {
        "CCSDS_OMM_VERS": "3.0",
        "COMMENT": "GENERATED VIA SPACE-TRACK.ORG API",
        "CREATION_DATE": "2025-04-12T22:09:39",
        "ORIGINATOR": "18 SPCS",
        "OBJECT_NAME": "BEIDOU 15",
        "OBJECT_ID": "2012-050B",
        "CENTER_NAME": "EARTH",
        "REF_FRAME": "TEME",
        "TIME_SYSTEM": "UTC",
        "MEAN_ELEMENT_THEORY": "SGP4",
        "EPOCH": "2025-04-12T04:37:26.748480",
        "MEAN_MOTION": "1.86231033",
        "ECCENTRICITY": "0.00146150",
        "INCLINATION": "56.1664",
        "RA_OF_ASC_NODE": "77.1870",
        "ARG_OF_PERICENTER": "338.5396",
        "MEAN_ANOMALY": "21.3765",
        "EPHEMERIS_TYPE": "0",
        "CLASSIFICATION_TYPE": "U",
        "NORAD_CAT_ID": "38775",
        "ELEMENT_SET_NO": "999",
        "REV_AT_EPOCH": "8528",
        "BSTAR": "0.00000000000000",
        "MEAN_MOTION_DOT": "-0.00000015",
        "MEAN_MOTION_DDOT": "0.0000000000000",
        "SEMIMAJOR_AXIS": "27906.185",
        "PERIOD": "773.233",
        "APOAPSIS": "21568.835",
        "PERIAPSIS": "21487.265",
        "OBJECT_TYPE": "PAYLOAD",
        "RCS_SIZE": "LARGE",
        "COUNTRY_CODE": "PRC",
        "LAUNCH_DATE": "2012-09-18",
        "SITE": "XSC",
        "DECAY_DATE": null,
        "FILE": "4699941",
        "GP_ID": "285443833",
        "TLE_LINE0": "0 BEIDOU 15",
        "TLE_LINE1": "1 38775U 12050B   25102.19267070 -.00000015  00000-0  00000-0 0  9997",
        "TLE_LINE2": "2 38775  56.1664  77.1870 0014615 338.5396  21.3765  1.86231033 85288"
    }
]